[{"OBJECT_NAME":"STARLINK-6126","OBJECT_ID":"2023-046AJ","EPOCH":"2026-03-09T22:00:01.999584","MEAN_MOTION":15.125351,"ECCENTRICITY":0.00023023,"INCLINATION":42.9998,"RA_OF_ASC_NODE":144.9048,"ARG_OF_PERICENTER":271.6853,"MEAN_ANOMALY":109.3366,"EPHEMERIS_TYPE":0,"CLASSIFICATION_TYPE":"U","NORAD_CAT_ID":56124,"ELEMENT_SET_NO":999,"REV_AT_EPOCH":577,"BSTAR":0.0675572,"MEAN_MOTION_DOT":0.01299298,"MEAN_MOTION_DDOT":0},{"OBJECT_NAME":"YAOGAN-43 01C","OBJECT_ID":"2024-148C","EPOCH":"2026-03-09T10:59:35.487168","MEAN_MOTION":15.23248363,"ECCENTRICITY":0.00048948,"INCLINATION":35.0004,"RA_OF_ASC_NODE":69.8276,"ARG_OF_PERICENTER":10.3083,"MEAN_ANOMALY":349.7732,"EPHEMERIS_TYPE":0,"CLASSIFICATION_TYPE":"U","NORAD_CAT_ID":60460,"ELEMENT_SET_NO":999,"REV_AT_EPOCH":8692,"BSTAR":0.00057210581,"MEAN_MOTION_DOT":0.00013877,"MEAN_MOTION_DDOT":0}]
